[{"OBJECT_NAME":"TIANMU-1 22","OBJECT_ID":"2023-208D","EPOCH":"2026-03-09T22:39:05.738688","MEAN_MOTION":15.29457749,"ECCENTRICITY":0.00031332,"INCLINATION":97.4379,"RA_OF_ASC_NODE":184.9419,"ARG_OF_PERICENTER":351.9312,"MEAN_ANOMALY":8.1877,"EPHEMERIS_TYPE":0,"CLASSIFICATION_TYPE":"U","NORAD_CAT_ID":58663,"ELEMENT_SET_NO":999,"REV_AT_EPOCH":12215,"BSTAR":0.00038239675,"MEAN_MOTION_DOT":0.00010851,"MEAN_MOTION_DDOT":0},{"OBJECT_NAME":"STARLINK-32375","OBJECT_ID":"2024-164W","EPOCH":"2026-03-09T08:26:21.859296","MEAN_MOTION":15.3019475,"ECCENTRICITY":0.00010907,"INCLINATION":53.159,"RA_OF_ASC_NODE":92.837,"ARG_OF_PERICENTER":77.8355,"MEAN_ANOMALY":282.2768,"EPHEMERIS_TYPE":0,"CLASSIFICATION_TYPE":"U","NORAD_CAT_ID":61070,"ELEMENT_SET_NO":999,"REV_AT_EPOCH":8342,"BSTAR":-2.782012e-5,"MEAN_MOTION_DOT":-1.183e-5,"MEAN_MOTION_DDOT":0}]
